OPS 6582 (TRANSIT 5B-5) 
1 00965U 64083D   24143.20059573  .00000128  00000+0  16623-3 0  9997
2 00965  90.0462 198.1726 0040140 331.2378  88.0039 13.56882577941085
LES-1                   
1 01002U 65008C   24143.79739481 -.00000001  00000+0 -11959-2 0  9993
2 01002  32.1484  34.1841 0013977  64.3451 295.8488  9.88353982141452
SOLRAD 7B               
1 01291U 65016D   24143.87692215  .00000106  00000+0  11799-3 0  9991
2 01291  70.0809  41.8754 0019762  26.4646 333.7465 13.94785728 11862
SECOR 4 (EGRS 4)        
1 01315U 65027B   24143.03806029 -.00000023  00000+0 -11320-3 0  9998
2 01315  90.2409 358.7496 0031657  17.9745 114.6856 12.92641245789239
TIROS 10                
1 01430U 65051A   24143.89558301  .00000618  00000+0  20272-3 0  9998
2 01430  98.4339 259.0316 0055818 186.5332 173.5135 14.40908751 87118
ALOUETTE 2              
1 01804U 65098A   24143.22732705  .00000907  00000+0  30103-3 0  9998
2 01804  79.8016 199.1482 1335684 323.9363  27.8335 12.27040657586101
OV3-3                   
1 02389U 66070A   24143.81007977  .00008174  00000+0  41694-3 0  9990
2 02389  81.3359 264.9895 1124605 282.4280  65.3450 13.18807023498299
SECOR 7 (EGRS 7)        
1 02411U 66077B   24143.28339659 -.00000025  00000+0 -13344-1 0  9997
2 02411  90.3288 268.6257 0015574 101.5355 258.7246  8.59615767812423
ERS 15                  
1 02412U 66077C   24143.74196029  .00000002  00000+0  00000+0 0  9997
2 02412  90.3305 268.4307 0009361 107.4874 252.7001  8.59076882325584
ISIS 1                  
1 03669U 69009A   24143.21522173  .00000208  00000+0  14775-3 0  9991
2 03669  88.4393 227.0506 1709598 334.1659  18.2817 11.29914965274370
SECOR 13 (EGRS 13)      
1 03891U 69037B   24143.30048086  .00000001  00000+0  78012-4 0  9991
2 03891  99.7571  32.4732 0038891 304.9098 179.8634 13.42926304700294
ATS 5                   
1 04068U 69069A   24143.84050097 -.00000138  00000+0  00000+0 0  9996
2 04068   1.8952 268.8400 0003095 356.3285  19.7431  0.99489181 38816
OPS 7613 (P/L 4)        
1 04237U 69082E   24143.85257487  .00000126  00000+0  13056-3 0  9997
2 04237  70.0150 277.2073 0019056  28.7340 139.1158 13.95760718781410
OPS 7613 (P/L 1)        
1 04256U 69082B   24143.44177635  .00000308  00000+0  25071-3 0  9991
2 04256  70.0076 148.0763 0020575 327.5997  32.3846 13.98773854784762
SHINSEI (MS-F2)         
1 05485U 71080A   24143.33196364  .00000055  00000+0  83654-4 0  9996
2 05485  32.0508 133.5996 0639878  81.5278 285.7268 12.74196781452803
PROSPERO (BLACK ARROW)  
1 05580U 71093A   24143.36561247  .00003127  00000+0  69411-3 0  9992
2 05580  82.0420 232.5803 0515640 229.3118 126.2164 13.97709432642768
OPS 7898 (P/L 2)        
1 05680U 71110C   24143.40061469  .00000046  00000+0  10179-3 0  9993
2 05680  69.9877 122.5103 0006508  19.1107 341.0230 13.74639011244344
NOAA 2 (ITOS-D)         
1 06235U 72082A   24143.85705573 -.00000029  00000+0  10832-3 0  9997
2 06235 102.0148 142.5383 0004153 163.2654 260.8253 12.53179963360337
OSCAR 7 (AO-7)          
1 07530U 74089B   24143.92972611 -.00000030  00000+0  10364-3 0  9994
2 07530 101.9775 138.3422 0012485 131.2644 284.0685 12.53675673265877
TIROS N                 
1 11060U 78096A   24143.11558954  .00000431  00000+0  22764-3 0  9991
2 11060  98.5338 184.4807 0009291 271.0261  88.9850 14.18811097571515
PHASE 3B (AO-10)        
1 14129U 83058B   24136.84348469  .00000218  00000+0  00000+0 0  9992
2 14129  27.4518 344.2053 6035273 268.7877  25.7872  2.05863643279790
HILAT                   
1 14154U 83063A   24143.51293233  .00001111  00000+0  36250-3 0  9999
2 14154  82.0225 143.0887 0041399  60.4315 102.2053 14.37487122138961
UOSAT 2 (UO-11)         
1 14781U 84021B   24143.91746277  .00002982  00000+0  34174-3 0  9995
2 14781  97.7030 113.9525 0008877 149.9699 210.2028 14.86620937144732
NOAA 9                  
1 15427U 84123A   24143.88750037  .00000375  00000+0  21125-3 0  9997
2 15427  99.1175 140.7048 0014243 331.9377  91.4836 14.16588794 36467
GEOSAT                  
1 15595U 85021A   24143.39988926  .00000750  00000+0  28650-3 0  9994
2 15595 108.0613 308.8117 0002462 270.1402  89.9458 14.39001763 54000
EUTELSAT 1-F4 (ECS 4)   
1 18351U 87078B   24143.38405198 -.00000145  00000+0  00000+0 0  9999
2 18351  14.3697 347.4825 0010602  43.9336 287.6965  0.98688846119292
AKEBONO (EXOS-D)        
1 19822U 89016A   24143.46537277  .00145536  41493-5  91311-3 0  9999
2 19822  74.9353 254.9435 0740833 287.7044  64.4617 14.39013935222714
PACSAT (AO-16)          
1 20439U 90005D   24143.92644734  .00000453  00000+0  18115-3 0  9995
2 20439  98.8998 148.3444 0009608 288.0668 141.6331 14.33373919793719
LUSAT (LO-19)           
1 20442U 90005G   24143.88740799  .00000455  00000+0  18134-3 0  9995
2 20442  98.8816 133.4910 0010548 259.0456 100.9540 14.33533716794212
IRS-1B                  
1 21688U 91061A   24143.86665247  .00000166  00000+0  15071-3 0  9999
2 21688  99.3629 123.4988 0023456 256.0025 161.2022 13.97615957562976
COSMOS 2197             
1 22034U 92042A   24143.53260601  .00000058  00000+0  26029-3 0  9999
2 22034  82.5955 351.7988 0012238 189.3300 231.9700 12.64214535469800
PEGASUS R/B             
1 22491U 93009C   24143.41094771  .00002336  00000+0  47593-3 0  9990
2 22491  24.9765 158.3746 0045670 248.3344 111.2298 14.55407665659295
EYESAT A (AO-27)        
1 22825U 93061C   24143.37813149  .00000358  00000+0  15468-3 0  9990
2 22825  98.7900 195.8818 0009045 148.3458 211.8270 14.30491453598923
ITAMSAT (IO-26)         
1 22826U 93061D   24143.15379217  .00000409  00000+0  17299-3 0  9991
2 22826  98.7847 195.5183 0009789 135.5429 224.6540 14.30871982599176
RADIO ROSTO (RS-15)     
1 23439U 94085A   24143.83726773 -.00000047  00000+0 -12517-3 0  9995
2 23439  64.8167  84.7624 0150623 148.5931 212.4094 11.27576834210733
JAS-2 (FO-29)           
1 24278U 96046B   24143.83160182 -.00000001  00000+0  37801-4 0  9995
2 24278  98.5796  81.8106 0349102 253.8819 102.3632 13.53188644371009
FORTE                   
1 24920U 97047A   24143.79699895  .00000624  00000+0  27856-3 0  9992
2 24920  69.9537 279.3352 0024548 231.5267 128.3652 14.27129635390872
NOAA 15                 
1 25338U 98030A   24143.91724365  .00000510  00000+0  22897-3 0  9998
2 25338  98.5699 171.5701 0011082  44.3475 315.8591 14.26582550353584
TECHSAT 1B (GO-32)      
1 25397U 98043D   24143.87286369  .00000255  00000+0  13099-3 0  9999
2 25397  98.9202 110.2204 0000739 175.1924 184.9261 14.24045454343819
ISS (ZARYA)             
1 25544U 98067A   24144.09758102  .00023185  00000+0  38823-3 0  9992
2 25544  51.6384  79.6868 0003164 196.9419 349.3310 15.51748605454655
ORSTED                  
1 25635U 99008B   24143.79139831  .00001692  00000+0  39517-3 0  9997
2 25635  96.4712 214.5067 0136944  87.9616 273.7259 14.49914635332426
LANDSAT 7               
1 25682U 99020A   24143.88258557  .00001125  00000+0  24001-3 0  9993
2 25682  97.8891 171.8644 0001836  87.9749  14.2800 14.60657926335440
ORBCOMM FM36            
1 25984U 99065E   24142.91724681  .00002609  00000+0  94476-3 0  9997
2 25984  45.0373 141.6440 0001541 157.1735 202.9181 14.35641795278142
DMSP 5D-3 F15 (USA 147) 
1 25991U 99067A   24143.87333428  .00000477  00000+0  26021-3 0  9990
2 25991  99.0657 158.8187 0009736 354.6653 104.2961 14.17002635263653
OPAL (OO-38)            
1 26063U 00004C   24143.89046985  .00000462  00000+0  17336-3 0  9998
2 26063 100.2107 289.2621 0036184   9.3302 350.8543 14.37335068274752
IMAGE                   
1 26113U 00017A   24139.73357845  .00000194  00000+0  11439-1 0  9994
2 26113  94.3107 303.0069 7498950  19.1474 358.0695  1.68654043148699
CLUSTER II-FM7 (SAMBA)  
1 26410U 00041A   24144.46517267  .00000994  00000+0  00000+0 0  9991
2 26410 139.0098 357.8564 7416595 212.7933   0.5059  0.44249932 28698
CLUSTER II-FM6 (SALSA)  
1 26411U 00041B   24142.13690566  .00002213  00000+0  00000+0 0  9994
2 26411 147.9437  22.8966 8956786 238.0452   0.4355  0.44246712 16988
CLUSTER II-FM5 (RUMBA)  
1 26463U 00045A   24142.18989596  .00001955  00000+0  00000+0 0  9996
2 26463 149.9677  17.6818 8483626 233.0780   0.4157  0.44226612 16851
CLUSTER II-FM8 (TANGO)  
1 26464U 00045B   24144.46523424  .00000995  00000+0  00000+0 0  9997
2 26464 139.0221 357.8642 7417243 212.8003   0.5190  0.44220507 16951
MEGSAT-1                
1 26546U 00057B   24143.86486829  .00005634  00000+0  49901-3 0  9993
2 26546  64.5538 315.4195 0027354 231.4001 128.4662 14.96923046284317
PHASE 3D (AO-40)        
1 26609U 00072B   24143.29180479 -.00000230  00000+0  00000+0 0  9990
2 26609   6.1691 110.1083 7969692 295.2718   5.5647  1.25590586108012
ODIN                    
1 26702U 01007A   24143.50323310  .00014555  00000+0  64280-3 0  9998
2 26702  97.4826 158.8025 0008033  29.3316 330.8370 15.21812981272993
OMNI-M1                 
1 26857U 01026A   24142.22648690 -.00000039  00000+0  00000+0 0  9998
2 26857  44.9405  59.2757 0013474 229.5154 130.3881  3.92402862175865
PCSAT (NO-44)           
1 26931U 01043C   24143.91001571  .00000504  00000+0  22163-3 0  9992
2 26931  67.0527  36.8557 0006725 281.3188  78.7158 14.31231710182331
PROBA-1                 
1 26958U 01049B   24143.93187741  .00004069  00000+0  31297-3 0  9991
2 26958  97.9167 120.0103 0058197 145.7602 214.7396 15.00945030230041
SPOT 5                  
1 27421U 02021A   24143.17031695  .00001540  00000+0  34003-3 0  9999
2 27421  98.0897 200.4521 0133939 102.9128 258.7067 14.53265132152975
FENGYUN 1D              
1 27431U 02024B   24143.12409211  .00000183  00000+0  12970-3 0  9992
2 27431  99.0558 181.5026 0015052 203.1370 156.9124 14.09980125132921
SAUDISAT 1C (SO-50)     
1 27607U 02058C   24143.84353473  .00003322  00000+0  46521-3 0  9998
2 27607  64.5556 299.4417 0028563 125.9100 234.4662 14.78901316152783
